STARLINK-30468          
1 57926U 23147P   26068.12699462  .00004329  00000+0  33509-3 0  9997
2 57926  43.0042 329.0906 0000800 274.4003  85.6748 15.02566099136507
2024-205C               
1 61896U 24205C   26067.20867002  .00012247  00000+0  67177-3 0  9995
2 61896  97.4204 141.0161 0044383 341.9375  18.0277 15.13448144 72971
