[{"OBJECT_NAME":"STARLINK-30468","OBJECT_ID":"2023-147P","EPOCH":"2026-03-09T03:02:52.335168","MEAN_MOTION":15.02566099,"ECCENTRICITY":8.004e-5,"INCLINATION":43.0042,"RA_OF_ASC_NODE":329.0906,"ARG_OF_PERICENTER":274.4003,"MEAN_ANOMALY":85.6748,"EPHEMERIS_TYPE":0,"CLASSIFICATION_TYPE":"U","NORAD_CAT_ID":57926,"ELEMENT_SET_NO":999,"REV_AT_EPOCH":13650,"BSTAR":0.00033508835,"MEAN_MOTION_DOT":4.329e-5,"MEAN_MOTION_DDOT":0},{"OBJECT_NAME":"OBJECT C","OBJECT_ID":"2024-205C","EPOCH":"2026-03-08T05:00:29.089728","MEAN_MOTION":15.13448144,"ECCENTRICITY":0.00443832,"INCLINATION":97.4204,"RA_OF_ASC_NODE":141.0161,"ARG_OF_PERICENTER":341.9375,"MEAN_ANOMALY":18.0277,"EPHEMERIS_TYPE":0,"CLASSIFICATION_TYPE":"U","NORAD_CAT_ID":61896,"ELEMENT_SET_NO":999,"REV_AT_EPOCH":7297,"BSTAR":0.00067176952,"MEAN_MOTION_DOT":0.00012247,"MEAN_MOTION_DDOT":0}]
